SEEDS II (CO-66)        
1 32791U 08021J   26068.92109284  .00023758  00000+0  84213-3 0  9995
2 32791  97.7519  62.3611 0001448 359.2618   0.8619 15.29097235972108
STARLINK-36453          
1 67341U 26003H   26068.48768062  .00040312  00000+0  14649-2 0  9990
2 67341  43.0003 228.1490 0001051 209.8674 150.2118 15.27614464  8794
