[{"OBJECT_NAME":"SEEDS II (CO-66)","OBJECT_ID":"2008-021J","EPOCH":"2026-03-09T22:06:22.421376","MEAN_MOTION":15.29097236,"ECCENTRICITY":0.00014475,"INCLINATION":97.7519,"RA_OF_ASC_NODE":62.3611,"ARG_OF_PERICENTER":359.2618,"MEAN_ANOMALY":0.8619,"EPHEMERIS_TYPE":0,"CLASSIFICATION_TYPE":"U","NORAD_CAT_ID":32791,"ELEMENT_SET_NO":999,"REV_AT_EPOCH":97210,"BSTAR":0.00084213052,"MEAN_MOTION_DOT":0.00023758,"MEAN_MOTION_DDOT":0},{"OBJECT_NAME":"STARLINK-36453","OBJECT_ID":"2026-003H","EPOCH":"2026-03-09T11:42:15.605568","MEAN_MOTION":15.27614464,"ECCENTRICITY":0.00010519,"INCLINATION":43.0003,"RA_OF_ASC_NODE":228.149,"ARG_OF_PERICENTER":209.8674,"MEAN_ANOMALY":150.2118,"EPHEMERIS_TYPE":0,"CLASSIFICATION_TYPE":"U","NORAD_CAT_ID":67341,"ELEMENT_SET_NO":999,"REV_AT_EPOCH":879,"BSTAR":0.0014648968,"MEAN_MOTION_DOT":0.00040312,"MEAN_MOTION_DDOT":0}]
